[{"OBJECT_NAME":"STARLINK-5193","OBJECT_ID":"2022-136AW","EPOCH":"2026-03-09T22:06:30.715776","MEAN_MOTION":15.08835048,"ECCENTRICITY":9.484e-5,"INCLINATION":53.2185,"RA_OF_ASC_NODE":332.7538,"ARG_OF_PERICENTER":85.2824,"MEAN_ANOMALY":274.8276,"EPHEMERIS_TYPE":0,"CLASSIFICATION_TYPE":"U","NORAD_CAT_ID":54095,"ELEMENT_SET_NO":999,"REV_AT_EPOCH":18702,"BSTAR":9.9037669e-5,"MEAN_MOTION_DOT":1.289e-5,"MEAN_MOTION_DDOT":0},{"OBJECT_NAME":"NOAA 17 DEB","OBJECT_ID":"2002-032DT","EPOCH":"2026-03-08T22:47:54.624192","MEAN_MOTION":15.08678856,"ECCENTRICITY":0.0018728,"INCLINATION":98.77,"RA_OF_ASC_NODE":121.3607,"ARG_OF_PERICENTER":298.7191,"MEAN_ANOMALY":61.2152,"EPHEMERIS_TYPE":0,"CLASSIFICATION_TYPE":"U","NORAD_CAT_ID":49489,"ELEMENT_SET_NO":999,"REV_AT_EPOCH":24229,"BSTAR":0.0068247859,"MEAN_MOTION_DOT":0.00108865,"MEAN_MOTION_DDOT":0}]
